STARLINK-1573           
1 46061U 20055AL  26068.50063041  .00000415  00000+0  26132-4 0  9997
2 46061  53.1594 114.7412 0001601  89.6069 270.5115 15.30196401309049
STARLINK-1559           
1 46077U 20055BC  26068.23360559  .00042685  00000+0  14779-2 0  9995
2 46077  53.0254  76.0659 0004229  33.9710 326.1559 15.29461733309518
